STARLINK-32337          
1 61643U 24191Y   24319.16667824 -.01353052  00000+0 -22975-1 0  9992
2 61643  43.0001   7.1286 0001211 271.4009 263.4323 15.53586296  4582
STARLINK-32238          
1 61661U 24193A   24318.91667824 -.01477692  00000+0 -23045-1 0  9992
2 61661  53.1592 169.7660 0000998  79.1695 120.2661 15.56376894  3998
STARLINK-32310          
1 61662U 24193B   24318.91667824 -.01481498  00000+0 -23110-1 0  9995
2 61662  53.1593 169.7620 0000985  74.8297 126.5219 15.56378711  4104
STARLINK-32308          
1 61663U 24193C   24318.91667824 -.01475856  00000+0 -23012-1 0  9998
2 61663  53.1593 169.7584 0001229  86.4182 116.8503 15.56375914  3994
STARLINK-32301          
1 61664U 24193D   24318.91667824 -.01477874  00000+0 -23048-1 0  9990
2 61664  53.1592 169.7496 0001024  75.1802 131.9206 15.56376860  3992
STARLINK-32439          
1 61665U 24193E   24318.91667824 -.01477869  00000+0 -23048-1 0  9995
2 61665  53.1592 169.7539 0001016  77.2226 127.9618 15.56376841  4043
STARLINK-32428          
1 61666U 24193F   24318.91667824 -.01475659  00000+0 -23009-1 0  9998
2 61666  53.1592 169.7461 0001194  79.2869 129.7311 15.56375736  4097
STARLINK-32414          
1 61667U 24193G   24318.91667824 -.01477640  00000+0 -23044-1 0  9990
2 61667  53.1593 169.7418 0001030  75.1934 135.7405 15.56376726  4099
STARLINK-32441          
1 61668U 24193H   24318.91667824 -.01478262  00000+0 -23055-1 0  9994
2 61668  53.1593 169.7378 0000951  72.8130 140.0379 15.56377249  4043
STARLINK-32400          
1 61669U 24193J   24318.91667824 -.01476970  00000+0 -23032-1 0  9994
2 61669  53.1592 169.7337 0001122  81.6255 133.1418 15.56376243  4090
STARLINK-32449          
1 61670U 24193K   24318.91667824 -.01477275  00000+0 -23038-1 0  9991
2 61670  53.1592 169.7303 0001001  83.6859 132.9976 15.56376541  4045
STARLINK-32453          
1 61671U 24193L   24318.91667824 -.01475386  00000+0 -23004-1 0  9996
2 61671  53.1592 169.7269 0001255  82.9442 135.6564 15.56375444  4042
STARLINK-32443          
1 61672U 24193M   24318.91667824 -.01475190  00000+0 -23001-1 0  9997
2 61672  53.1593 169.7229 0001210  78.1793 142.3377 15.56375368  4049
STARLINK-32417          
1 61673U 24193N   24318.91667824 -.01475242  00000+0 -23002-1 0  9997
2 61673  53.1592 169.7191 0001192  79.3822 143.0513 15.56375421  4097
STARLINK-32326          
1 61674U 24193P   24318.91667824 -.01475139  00000+0 -23000-1 0  9991
2 61674  53.1593 169.7145 0001230  78.8983 145.4518 15.56375324  3994
STARLINK-32294          
1 61675U 24193Q   24318.91667824 -.01475065  00000+0 -22998-1 0  9995
2 61675  53.1593 169.7104 0001331  78.4110 147.8556 15.56375216  4090
STARLINK-32309          
1 61676U 24193R   24318.91667824 -.01475164  00000+0 -23000-1 0  9991
2 61676  53.1593 169.7036 0001286  77.6695 152.4301 15.56375303  3998
STARLINK-32323          
1 61677U 24193S   24318.91667824 -.01475136  00000+0 -23000-1 0  9991
2 61677  53.1593 169.7071 0001227  79.4639 148.7192 15.56375295  3997
STARLINK-32363          
1 61678U 24193T   24318.91667824 -.01475384  00000+0 -23004-1 0  9991
2 61678  53.1593 169.6992 0001253  77.5382 154.4778 15.56375418  4040
STARLINK-32395          
1 61679U 24193U   24318.91667824 -.01477607  00000+0 -23044-1 0  9996
2 61679  53.1593 169.6944 0000962  72.7411 161.1915 15.56376655  4046
STARLINK-32412          
1 61680U 24193V   24318.91667824 -.01477907  00000+0 -23049-1 0  9996
2 61680  53.1594 169.6867 0000970  70.6052 167.1602 15.56376865  4097
STARLINK-32426          
1 61681U 24193W   24318.91667824 -.01477803  00000+0 -23047-1 0  9990
2 61681  53.1594 169.6909 0001003  70.4658 165.3832 15.56376785  4044
STARLINK-32429          
1 61682U 24193X   24318.91667824 -.01475274  00000+0 -23003-1 0  9993
2 61682  53.1593 169.6822 0001139  82.0162 157.6657 15.56375400  4049
SHENZHOU-19 (SZ-19)     
1 61683U 24194A   24318.49479348  .00054185  00000+0  65851-3 0  9990
2 61683  41.4668 252.4463 0009331 320.4335  39.5821 15.59653383202467
2024-194B               
1 61684U 24194B   24304.16570017 -.00002234  70709-5  00000+0 0  9994
2 61684  41.3050 339.9579 0264171 116.1457 292.8724 15.65002779    52
2024-194C               
1 61685U 24194C   24304.42790892 -.00002334  73895-5  00000+0 0  9999
2 61685  41.5846 337.6433 0197112 136.4247 338.0813 15.80520491    82
STARLINK-11335 [DTC]    
1 61687U 24195A   24318.91667824 -.00978641  00000+0 -59676-2 0  9991
2 61687  53.1647 238.0566 0000890 108.2408  84.6528 15.79296525  3508
STARLINK-11344 [DTC]    
1 61688U 24195B   24318.91667824 -.00948226  00000+0 -52436-2 0  9995
2 61688  53.1645 238.0259 0000867 110.3885  97.2865 15.81327405  3502
STARLINK-11312 [DTC]    
1 61689U 24195C   24319.06803219 -.00271037  00000+0 -12680-2 0  9999
2 61689  53.1651 237.2460 0001194 111.0501 249.0651 15.83186113  3514
STARLINK-11340 [DTC]    
1 61690U 24195D   24319.06745247  .00009298  00000+0  44297-4 0  9994
2 61690  53.1648 237.2423 0001658  90.1639 269.9575 15.83788518  3529
STARLINK-11339 [DTC]    
1 61691U 24195E   24319.06568772 -.00006578  00000+0 -25872-4 0  9999
2 61691  53.1645 237.2300 0001213  83.1362 276.9800 15.83775868  3515
STARLINK-11315 [DTC]    
1 61692U 24195F   24319.06649035 -.00020327  00000+0 -86894-4 0  9991
2 61692  53.1647 237.2337 0001694  93.2039 266.9179 15.83765784  3529
STARLINK-11366 [DTC]    
1 61693U 24195G   24319.06513713 -.00003416  00000+0 -11862-4 0  9998
2 61693  53.1647 237.2257 0001117  91.6232 268.4920 15.83786770  3527
STARLINK-11348 [DTC]    
1 61694U 24195H   24319.06422791 -.00008868  00000+0 -36001-4 0  9992
2 61694  53.1644 237.2189 0000868 112.8849 247.2266 15.83786538  3521
STARLINK-11327 [DTC]    
1 61695U 24195J   24319.06382400 -.00001559  00000+0 -36485-5 0  9992
2 61695  53.1644 237.2158 0000945  86.1937 273.9195 15.83796937  3515
STARLINK-11341 [DTC]    
1 61696U 24195K   24319.16667824 -.00117125  00000+0 -52014-3 0  9991
2 61696  53.1644 236.6881 0001452  56.7967 176.0194 15.83838498  3535
STARLINK-11346 [DTC]    
1 61697U 24195L   24318.91667824  .00013979  00000+0  64854-4 0  9990
2 61697  53.1644 237.9357 0001062  86.1367 165.0859 15.83813846  3509
STARLINK-11336 [DTC]    
1 61698U 24195M   24318.91667824  .00033545  00000+0  15099-3 0  9998
2 61698  53.1641 237.9278 0001083  81.5406 173.1877 15.83782019  3502
STARLINK-11296 [DTC]    
1 61699U 24195N   24318.91667824 -.00014333  00000+0 -60176-4 0  9992
2 61699  53.1640 237.9194 0001124  87.7666 170.9580 15.83800943  3504
STARLINK-32349          
1 61700U 24195P   24319.16667824 -.00052046  00000+0 -35978-3 0  9997
2 61700  53.1618 236.8401 0000836  52.8505 104.8197 15.73767746  3372
STARLINK-32461          
1 61701U 24195Q   24319.16667824  .00056047  00000+0  39239-3 0  9995
2 61701  53.1617 236.8359 0001083  45.4713 114.1383 15.73711986  3374
STARLINK-32299          
1 61702U 24195R   24319.16667824  .00118301  00000+0  81890-3 0  9998
2 61702  53.1619 236.8324 0000886  81.0907  80.4457 15.73667642  3534
STARLINK-32335          
1 61703U 24195S   24319.16667824  .00095035  00000+0  66014-3 0  9998
2 61703  53.1610 236.8281 0000691  34.8876 128.5686 15.73681391  3538
STARLINK-32387          
1 61704U 24195T   24319.16667824  .00080665  00000+0  56159-3 0  9991
2 61704  53.1611 236.8202 0001058 118.8203  48.4550 15.73695549  3370
STARLINK-32515          
1 61705U 24195U   24319.16667824  .00098500  00000+0  68346-3 0  9990
2 61705  53.1610 236.8163 0001360  43.7555 125.4345 15.73691583  3381
STARLINK-32533          
1 61706U 24195V   24319.16667824  .00081835  00000+0  56977-3 0  9991
2 61706  53.1612 236.8244 0001129  60.1963 105.1741 15.73688371  3323
STARLINK-32376          
1 61707U 24196A   24319.16667824 -.00963973  00000+0 -46273-2 0  9994
2 61707  53.1528 181.3316 0000921  78.0306 307.6684 15.84343571  3497
STARLINK-32402          
1 61708U 24196B   24318.91667824 -.00972453  00000+0 -45559-2 0  9996
2 61708  53.1525 182.5856 0000751  56.1887 344.9624 15.84868089  3460
STARLINK-32314          
1 61709U 24196C   24318.91667824 -.00986008  00000+0 -46235-2 0  9990
2 61709  53.1527 182.5751 0000707  67.4663 338.9647 15.84883557  3235
STARLINK-32404          
1 61710U 24196D   24318.91667824 -.00980058  00000+0 -45960-2 0  9995
2 61710  53.1527 182.5799 0000464  66.1003 338.0114 15.84869353  3466
STARLINK-32312          
1 61711U 24196E   24318.91667824 -.01018794  00000+0 -47904-2 0  9996
2 61711  53.1525 182.5643 0000671  68.4281 343.1835 15.84908155  3467
STARLINK-32343          
1 61712U 24196F   24318.91667824 -.01000511  00000+0 -46974-2 0  9991
2 61712  53.1528 182.5696 0000791  57.1966 351.9348 15.84892608  3233
STARLINK-32467          
1 61713U 24196G   24318.91667824 -.01035670  00000+0 -48783-2 0  9996
2 61713  53.1523 182.5582 0000715  57.1072 357.2483 15.84913518  3241
STARLINK-32440          
1 61714U 24196H   24318.91667824 -.01059519  00000+0 -50159-2 0  9995
2 61714  53.1524 182.5388 0000635  61.0669   2.8995 15.84869962  3147
STARLINK-32459          
1 61715U 24196J   24318.91667824 -.01050322  00000+0 -49594-2 0  9990
2 61715  53.1523 182.5512 0000631  81.7171 335.9465 15.84900671  3357
STARLINK-32465          
1 61716U 24196K   24318.91667824 -.01054236  00000+0 -49828-2 0  9999
2 61716  53.1524 182.5459 0000501  66.1699 354.4009 15.84891431  3350
STARLINK-32457          
1 61717U 24196L   24318.91667824 -.01067212  00000+0 -50557-2 0  9999
2 61717  53.1524 182.5282 0000720  67.1022   1.9886 15.84874619  3467
STARLINK-32591          
1 61718U 24196M   24318.91667824 -.01064943  00000+0 -50440-2 0  9999
2 61718  53.1525 182.5337 0000629  80.2753 346.2376 15.84873736  3463
